{
  "type": "FeatureCollection",
  "features": [
    {
      "type": "Feature",
      "geometry": {
        "type": "Point",
        "coordinates": [
          35.5797,
          33.3118
        ]
      },
      "properties": {
        "cluster_id": "623dd8973981",
        "headline": "IDF: -In one operation at the Tayyiba ridge, troops uncovered a tunnel network, tracked Hezbollah fighters attempting to escape, and killed 10 mil…",
        "signal_tags": [
          "casualty",
          "strike-claim"
        ],
        "confidence": "low",
        "frameworks": [],
        "district": "Marjayoun",
        "analysis_short": "Lebanon is the pressure point in this cluster. The strongest cautious reading is that these are separate reports, but the pattern matters because Lebanon's weak state makes every local event travel through sectarian brok",
        "published_at": "2026-07-27T10:09:00+00:00",
        "match_confidence": 0.88,
        "severity": "critical",
        "location_precision": "exact",
        "confirmation_status": "single-source",
        "claim_side": "Israeli security narrative",
        "recommended_next_check": "Check Lebanon against Lebanese local reporting, municipal or rescue updates, and one opposing-source record before acting on it.",
        "source_lanes": [
          "israeli-establishment"
        ],
        "civilian_impact_flags": [
          "casualties",
          "roads"
        ],
        "what_is_missing": "Missing: a second source, a precise place, Lebanese local confirmation, wire or regional corroboration.",
        "verification_status": "needs-source",
        "verification_label": "Needs another source",
        "verification_missing": [
          "second source",
          "Lebanese local record",
          "wire or regional corroboration"
        ],
        "map_marker_kind": "pin",
        "map_precision_label": "Named place pin",
        "map_radius_meters": 2500,
        "map_warning": "The place name was matched, but the claim still needs the source checks listed in the record."
      }
    },
    {
      "type": "Feature",
      "geometry": {
        "type": "Point",
        "coordinates": [
          35.43,
          33.275
        ]
      },
      "properties": {
        "cluster_id": "2a79917929f3",
        "headline": "UN human rights chief Volker Türk blunt demand after wrapping up his latest visit in Lebanon: Israel must end its occupation of southern Lebanon a…",
        "signal_tags": [
          "casualty",
          "displacement",
          "economic",
          "political-maneuver",
          "strike-claim"
        ],
        "confidence": "low",
        "frameworks": [],
        "district": "South Lebanon",
        "analysis_short": "Lebanon is the pressure point in this cluster. The strongest cautious reading is that these are separate reports, but the pattern matters because Lebanon's weak state makes every local event travel through sectarian brok",
        "published_at": "2026-07-27T22:45:00+00:00",
        "match_confidence": 0.52,
        "severity": "high",
        "location_precision": "district",
        "confirmation_status": "single-source",
        "claim_side": "Regional and wire reporting",
        "recommended_next_check": "Check Lebanon against Lebanese local reporting, municipal or rescue updates, and one opposing-source record before acting on it.",
        "source_lanes": [
          "wires-regional"
        ],
        "civilian_impact_flags": [
          "displacement",
          "casualties"
        ],
        "what_is_missing": "Missing: a second source, a precise place, Lebanese local confirmation.",
        "verification_status": "needs-source-and-location",
        "verification_label": "Needs source and place",
        "verification_missing": [
          "second source",
          "sharper place",
          "Lebanese local record"
        ],
        "map_marker_kind": "representative-area",
        "map_precision_label": "Representative area",
        "map_radius_meters": 36000,
        "map_warning": "This is a representative center for a broader place mention, not a street-level pin."
      }
    },
    {
      "type": "Feature",
      "geometry": {
        "type": "Point",
        "coordinates": [
          35.43,
          33.275
        ]
      },
      "properties": {
        "cluster_id": "6336363a4ead",
        "headline": "Aoun meeting with UN rights chief: Israeli demolitions in southern Lebanon could impact framework agreement",
        "signal_tags": [
          "political-maneuver"
        ],
        "confidence": "low",
        "frameworks": [],
        "district": "South Lebanon",
        "analysis_short": "Lebanon is the pressure point in this cluster. The strongest cautious reading is that these are separate reports, but the pattern matters because Lebanon's weak state makes every local event travel through sectarian brok",
        "published_at": "2026-07-27T11:38:01+00:00",
        "match_confidence": 0.52,
        "severity": "moderate",
        "location_precision": "district",
        "confirmation_status": "single-source",
        "claim_side": "Mixed reporting",
        "recommended_next_check": "Look for the same place and time in a Lebanese local source, an Israeli source, and a wire or regional source.",
        "source_lanes": [
          "lebanese-local"
        ],
        "civilian_impact_flags": [],
        "what_is_missing": "Missing: a second source, a precise place, wire or regional corroboration.",
        "verification_status": "needs-source-and-location",
        "verification_label": "Needs source and place",
        "verification_missing": [
          "second source",
          "sharper place",
          "wire or regional corroboration"
        ],
        "map_marker_kind": "representative-area",
        "map_precision_label": "Representative area",
        "map_radius_meters": 36000,
        "map_warning": "This is a representative center for a broader place mention, not a street-level pin."
      }
    }
  ]
}