{"type":"FeatureCollection","metadata":{"source":"https://lebanon.liveuamap.com/","observed_at":"2026-09-08T13:20:00Z","method":"Coordinates copied directly from the publicly rendered Leaflet yellow LineString with opacity 0.80 in Lebanon Base Layer 13. No smoothing, interpolation or editorial redrawing. The source also displays a fainter alternative line, not included here.","limitation":"Matches the observed source display, not independently surveyed territorial control. Observation date is not the date the line was established."},"features":[{"type":"Feature","properties":{"kind":"yellow-line","label":"Yellow line","source":"https://lebanon.liveuamap.com/","observed_date":"2026-09-08","precision":"source geometry"},"geometry":{"type":"LineString","coordinates":[[35.19161,33.17959],[35.19899,33.1793],[35.20535,33.17872],[35.20741,33.17973],[35.20869,33.18038],[35.21187,33.18016],[35.21745,33.17836],[35.22105,33.17499],[35.22457,33.16392],[35.2274,33.16155],[35.23508,33.16249],[35.23954,33.16227],[35.24538,33.15904],[35.24839,33.1581],[35.25079,33.15645],[35.2562,33.15789],[35.26066,33.15681],[35.26495,33.15681],[35.26864,33.15523],[35.27589,33.15519],[35.28276,33.15045],[35.28362,33.14326],[35.28387,33.14283],[35.29143,33.14319],[35.30173,33.14025],[35.30602,33.13708],[35.31152,33.13805],[35.31375,33.13669],[35.31469,33.13381],[35.31838,33.13338],[35.32182,33.13396],[35.3231,33.13805],[35.32791,33.13949],[35.32928,33.13762],[35.33401,33.13841],[35.33813,33.13712],[35.34611,33.13985],[35.35143,33.14229],[35.3595,33.14934],[35.36396,33.15322],[35.37332,33.16249],[35.37752,33.16687],[35.3801,33.16946],[35.38877,33.1696],[35.39452,33.17068],[35.39975,33.16895],[35.4007,33.1673],[35.40524,33.16867],[35.41142,33.1655],[35.41872,33.16673],[35.41966,33.16816],[35.42396,33.16895],[35.42584,33.16895],[35.42919,33.17125],[35.43262,33.16845],[35.44576,33.17017],[35.44893,33.17003],[35.45288,33.16917],[35.45872,33.16622],[35.46893,33.15854],[35.47194,33.153],[35.47219,33.15135],[35.47751,33.15106],[35.47949,33.15142],[35.48146,33.15106],[35.48593,33.15473],[35.48618,33.17032],[35.4855,33.17686],[35.48464,33.18698],[35.48284,33.19043],[35.48326,33.20164],[35.48138,33.20228],[35.48421,33.21212],[35.47932,33.21973],[35.477,33.22935],[35.47305,33.23431],[35.47614,33.24228],[35.47683,33.24845],[35.47314,33.25498],[35.46412,33.25312],[35.4485,33.25907],[35.4455,33.26769],[35.45091,33.27651],[35.4461,33.27938],[35.44095,33.28103],[35.43838,33.2872],[35.4443,33.29287],[35.44121,33.29682],[35.43211,33.30858],[35.43408,33.31999],[35.45374,33.32759],[35.4679,33.32666],[35.48498,33.33713],[35.51047,33.33096],[35.51579,33.3339],[35.50936,33.34042],[35.50266,33.34702],[35.50601,33.36337],[35.51047,33.36996],[35.5097,33.37813],[35.51202,33.38186],[35.51785,33.38129],[35.51991,33.3734],[35.52601,33.36143],[35.5273,33.35656],[35.53227,33.35677],[35.53682,33.35089],[35.5394,33.34028],[35.53983,33.33655],[35.54172,33.33376],[35.54455,33.33132],[35.54438,33.32293],[35.54781,33.31518],[35.55476,33.31432],[35.55957,33.30916],[35.56334,33.30378],[35.56807,33.30449],[35.56987,33.31088],[35.59072,33.30994],[35.59313,33.33447],[35.59862,33.35089],[35.60463,33.35419],[35.61905,33.3443],[35.62995,33.34064],[35.62986,33.32393],[35.63355,33.31324],[35.64231,33.30507],[35.66025,33.30048],[35.66531,33.31618],[35.67982,33.31518],[35.6896,33.32113],[35.70419,33.32049],[35.70831,33.34258],[35.72282,33.36258],[35.72033,33.37992],[35.72505,33.38666],[35.75269,33.4164],[35.78187,33.41998],[35.80393,33.4323],[35.82041,33.43022],[35.84933,33.42908],[35.85912,33.42772],[35.8641,33.42191]]}}]}
